[{"OBJECT_NAME":"STARLINK-32958","OBJECT_ID":"2025-075R","EPOCH":"2026-03-09T22:13:13.515168","MEAN_MOTION":15.2759075,"ECCENTRICITY":4.734e-5,"INCLINATION":42.993,"RA_OF_ASC_NODE":269.2857,"ARG_OF_PERICENTER":184.2801,"MEAN_ANOMALY":175.8047,"EPHEMERIS_TYPE":0,"CLASSIFICATION_TYPE":"U","NORAD_CAT_ID":63563,"ELEMENT_SET_NO":999,"REV_AT_EPOCH":5196,"BSTAR":0.0010360954,"MEAN_MOTION_DOT":0.00028368,"MEAN_MOTION_DDOT":0},{"OBJECT_NAME":"PELICAN-6","OBJECT_ID":"2025-276AP","EPOCH":"2026-03-09T16:58:12.890496","MEAN_MOTION":15.2637798,"ECCENTRICITY":0.0003569,"INCLINATION":97.4276,"RA_OF_ASC_NODE":144.2072,"ARG_OF_PERICENTER":157.8575,"MEAN_ANOMALY":202.2819,"EPHEMERIS_TYPE":0,"CLASSIFICATION_TYPE":"U","NORAD_CAT_ID":66703,"ELEMENT_SET_NO":999,"REV_AT_EPOCH":1533,"BSTAR":0.0029725783,"MEAN_MOTION_DOT":0.00077979,"MEAN_MOTION_DDOT":0}]
